[{"OBJECT_NAME":"YUNHAI-2 02B","OBJECT_ID":"2024-052B","EPOCH":"2026-03-09T23:36:35.688096","MEAN_MOTION":14.27934606,"ECCENTRICITY":0.00049008,"INCLINATION":50.0096,"RA_OF_ASC_NODE":82.8635,"ARG_OF_PERICENTER":204.1561,"MEAN_ANOMALY":155.9125,"EPHEMERIS_TYPE":0,"CLASSIFICATION_TYPE":"U","NORAD_CAT_ID":59281,"ELEMENT_SET_NO":999,"REV_AT_EPOCH":10243,"BSTAR":0.00011696599,"MEAN_MOTION_DOT":1.31e-6,"MEAN_MOTION_DDOT":0},{"OBJECT_NAME":"COSMOS 1275 DEB","OBJECT_ID":"1981-053JC","EPOCH":"2026-03-09T17:45:31.351680","MEAN_MOTION":14.22416013,"ECCENTRICITY":0.00386203,"INCLINATION":82.7675,"RA_OF_ASC_NODE":330.4701,"ARG_OF_PERICENTER":194.2608,"MEAN_ANOMALY":165.7488,"EPHEMERIS_TYPE":0,"CLASSIFICATION_TYPE":"U","NORAD_CAT_ID":14407,"ELEMENT_SET_NO":999,"REV_AT_EPOCH":20778,"BSTAR":0.0014280703,"MEAN_MOTION_DOT":3.22e-5,"MEAN_MOTION_DDOT":0}]
